STARLINK-1183_new
1 15088C 20006AW  21326.16718294  .00004172  00000-0  27955-3 0  3264
2 15088  53.0539  88.0004 0001302  90.8442 133.5902 15.06388256    13
STARLINK-1183_old
1 25088C 20006AW  21325.11736045  .00001502  00000-0  10068-3 0  3252
2 25088  53.0540  92.7128 0001347  91.3974 196.7082 15.06382856    19
